CCSDS_OMM_VERS = 2.0
CREATION_DATE  = 
ORIGINATOR     = 

OBJECT_NAME    = TJS-20
OBJECT_ID      = 2025-238A
CENTER_NAME    = EARTH
REF_FRAME      = TEME
TIME_SYSTEM    = UTC
MEAN_ELEMENT_THEORY = SGP/SGP4

EPOCH          = 2025-11-22T10:57:00.304128
MEAN_MOTION    = 1.00270366
ECCENTRICITY   = .0001524
INCLINATION    = 5.9338
RA_OF_ASC_NODE = 300.4058
ARG_OF_PERICENTER = 98.2581
MEAN_ANOMALY   = 249.7665

EPHEMERIS_TYPE = 0
CLASSIFICATION_TYPE = U
NORAD_CAT_ID   = 66142
ELEMENT_SET_NO = 999
REV_AT_EPOCH   = 25
BSTAR          = 0
MEAN_MOTION_DOT = .43E-6
MEAN_MOTION_DDOT = 0

CCSDS_OMM_VERS = 2.0
CREATION_DATE  = 
ORIGINATOR     = 

OBJECT_NAME    = CZ-5 R/B
OBJECT_ID      = 2025-238B
CENTER_NAME    = EARTH
REF_FRAME      = TEME
TIME_SYSTEM    = UTC
MEAN_ELEMENT_THEORY = SGP/SGP4

EPOCH          = 2025-11-22T07:04:10.485120
MEAN_MOTION    = 1.95289665
ECCENTRICITY   = .7584111
INCLINATION    = 16.2544
RA_OF_ASC_NODE = 263.3751
ARG_OF_PERICENTER = 182.7486
MEAN_ANOMALY   = 167.2638

EPHEMERIS_TYPE = 0
CLASSIFICATION_TYPE = U
NORAD_CAT_ID   = 66143
ELEMENT_SET_NO = 999
REV_AT_EPOCH   = 59
BSTAR          = .23113E-2
MEAN_MOTION_DOT = .116414E-2
MEAN_MOTION_DDOT = .15328E-5

CCSDS_OMM_VERS = 2.0
CREATION_DATE  = 
ORIGINATOR     = 

OBJECT_NAME    = SPAINSAT NG II
OBJECT_ID      = 2025-239A
CENTER_NAME    = EARTH
REF_FRAME      = TEME
TIME_SYSTEM    = UTC
MEAN_ELEMENT_THEORY = SGP/SGP4

EPOCH          = 2025-11-20T17:44:20.342976
MEAN_MOTION    = 1.02461053
ECCENTRICITY   = .782626
INCLINATION    = 19.1906
RA_OF_ASC_NODE = 243.2668
ARG_OF_PERICENTER = 184.4813
MEAN_ANOMALY   = 157.6443

EPHEMERIS_TYPE = 0
CLASSIFICATION_TYPE = U
NORAD_CAT_ID   = 66144
ELEMENT_SET_NO = 999
REV_AT_EPOCH   = 32
BSTAR          = 0
MEAN_MOTION_DOT = -.263E-5
MEAN_MOTION_DDOT = 0

CCSDS_OMM_VERS = 2.0
CREATION_DATE  = 
ORIGINATOR     = 

OBJECT_NAME    = STARLINK-35318
OBJECT_ID      = 2025-240A
CENTER_NAME    = EARTH
REF_FRAME      = TEME
TIME_SYSTEM    = UTC
MEAN_ELEMENT_THEORY = SGP/SGP4

EPOCH          = 2025-11-21T22:55:23.380608
MEAN_MOTION    = 15.39594257
ECCENTRICITY   = .0001128
INCLINATION    = 53.1586
RA_OF_ASC_NODE = 204.6594
ARG_OF_PERICENTER = 63.9224
MEAN_ANOMALY   = 296.1896

EPHEMERIS_TYPE = 0
CLASSIFICATION_TYPE = U
NORAD_CAT_ID   = 66146
ELEMENT_SET_NO = 999
REV_AT_EPOCH   = 552
BSTAR          = .125E-2
MEAN_MOTION_DOT = .49885E-3
MEAN_MOTION_DDOT = 0

CCSDS_OMM_VERS = 2.0
CREATION_DATE  = 
ORIGINATOR     = 

OBJECT_NAME    = STARLINK-33948
OBJECT_ID      = 2025-240B
CENTER_NAME    = EARTH
REF_FRAME      = TEME
TIME_SYSTEM    = UTC
MEAN_ELEMENT_THEORY = SGP/SGP4

EPOCH          = 2025-11-22T12:00:02.998944
MEAN_MOTION    = 15.39573209
ECCENTRICITY   = .000133
INCLINATION    = 53.1590
RA_OF_ASC_NODE = 201.7759
ARG_OF_PERICENTER = 104.0544
MEAN_ANOMALY   = 196.1520

EPHEMERIS_TYPE = 0
CLASSIFICATION_TYPE = U
NORAD_CAT_ID   = 66147
ELEMENT_SET_NO = 999
REV_AT_EPOCH   = 569
BSTAR          = .20241E-2
MEAN_MOTION_DOT = .81306E-3
MEAN_MOTION_DDOT = 0

CCSDS_OMM_VERS = 2.0
CREATION_DATE  = 
ORIGINATOR     = 

OBJECT_NAME    = STARLINK-35081
OBJECT_ID      = 2025-240C
CENTER_NAME    = EARTH
REF_FRAME      = TEME
TIME_SYSTEM    = UTC
MEAN_ELEMENT_THEORY = SGP/SGP4

EPOCH          = 2025-11-22T12:00:02.998944
MEAN_MOTION    = 15.47880901
ECCENTRICITY   = .0000834
INCLINATION    = 53.1585
RA_OF_ASC_NODE = 201.5326
ARG_OF_PERICENTER = 115.9052
MEAN_ANOMALY   = 306.5928

EPHEMERIS_TYPE = 0
CLASSIFICATION_TYPE = U
NORAD_CAT_ID   = 66148
ELEMENT_SET_NO = 999
REV_AT_EPOCH   = 564
BSTAR          = -.38449E-1
MEAN_MOTION_DOT = -.1833952E-1
MEAN_MOTION_DDOT = 0

CCSDS_OMM_VERS = 2.0
CREATION_DATE  = 
ORIGINATOR     = 

OBJECT_NAME    = STARLINK-35601
OBJECT_ID      = 2025-240D
CENTER_NAME    = EARTH
REF_FRAME      = TEME
TIME_SYSTEM    = UTC
MEAN_ELEMENT_THEORY = SGP/SGP4

EPOCH          = 2025-11-21T22:34:22.077120
MEAN_MOTION    = 15.39583947
ECCENTRICITY   = .0001132
INCLINATION    = 53.1593
RA_OF_ASC_NODE = 204.5665
ARG_OF_PERICENTER = 70.7800
MEAN_ANOMALY   = 289.3328

EPHEMERIS_TYPE = 0
CLASSIFICATION_TYPE = U
NORAD_CAT_ID   = 66149
ELEMENT_SET_NO = 999
REV_AT_EPOCH   = 547
BSTAR          = .12636E-2
MEAN_MOTION_DOT = .50419E-3
MEAN_MOTION_DDOT = 0

CCSDS_OMM_VERS = 2.0
CREATION_DATE  = 
ORIGINATOR     = 

OBJECT_NAME    = STARLINK-35605
OBJECT_ID      = 2025-240E
CENTER_NAME    = EARTH
REF_FRAME      = TEME
TIME_SYSTEM    = UTC
MEAN_ELEMENT_THEORY = SGP/SGP4

EPOCH          = 2025-11-22T12:00:02.998944
MEAN_MOTION    = 15.39494131
ECCENTRICITY   = .0001051
INCLINATION    = 53.1587
RA_OF_ASC_NODE = 201.6727
ARG_OF_PERICENTER = 131.7478
MEAN_ANOMALY   = 219.9988

EPHEMERIS_TYPE = 0
CLASSIFICATION_TYPE = U
NORAD_CAT_ID   = 66150
ELEMENT_SET_NO = 999
REV_AT_EPOCH   = 564
BSTAR          = .24649E-2
MEAN_MOTION_DOT = .99074E-3
MEAN_MOTION_DDOT = 0

CCSDS_OMM_VERS = 2.0
CREATION_DATE  = 
ORIGINATOR     = 

OBJECT_NAME    = STARLINK-35540
OBJECT_ID      = 2025-240F
CENTER_NAME    = EARTH
REF_FRAME      = TEME
TIME_SYSTEM    = UTC
MEAN_ELEMENT_THEORY = SGP/SGP4

EPOCH          = 2025-11-22T04:08:36.186720
MEAN_MOTION    = 15.49296939
ECCENTRICITY   = .000162
INCLINATION    = 53.1588
RA_OF_ASC_NODE = 203.1671
ARG_OF_PERICENTER = 87.1524
MEAN_ANOMALY   = 272.9670

EPHEMERIS_TYPE = 0
CLASSIFICATION_TYPE = U
NORAD_CAT_ID   = 66151
ELEMENT_SET_NO = 999
REV_AT_EPOCH   = 551
BSTAR          = .12035E-2
MEAN_MOTION_DOT = .67033E-3
MEAN_MOTION_DDOT = 0

CCSDS_OMM_VERS = 2.0
CREATION_DATE  = 
ORIGINATOR     = 

OBJECT_NAME    = STARLINK-35455
OBJECT_ID      = 2025-240G
CENTER_NAME    = EARTH
REF_FRAME      = TEME
TIME_SYSTEM    = UTC
MEAN_ELEMENT_THEORY = SGP/SGP4

EPOCH          = 2025-11-22T01:55:39.405216
MEAN_MOTION    = 15.39611311
ECCENTRICITY   = .0001096
INCLINATION    = 53.1585
RA_OF_ASC_NODE = 204.0163
ARG_OF_PERICENTER = 74.3740
MEAN_ANOMALY   = 285.7385

EPHEMERIS_TYPE = 0
CLASSIFICATION_TYPE = U
NORAD_CAT_ID   = 66152
ELEMENT_SET_NO = 999
REV_AT_EPOCH   = 549
BSTAR          = .94326E-3
MEAN_MOTION_DOT = .37505E-3
MEAN_MOTION_DDOT = 0

CCSDS_OMM_VERS = 2.0
CREATION_DATE  = 
ORIGINATOR     = 

OBJECT_NAME    = STARLINK-34752
OBJECT_ID      = 2025-240H
CENTER_NAME    = EARTH
REF_FRAME      = TEME
TIME_SYSTEM    = UTC
MEAN_ELEMENT_THEORY = SGP/SGP4

EPOCH          = 2025-11-22T12:00:02.998944
MEAN_MOTION    = 15.39575848
ECCENTRICITY   = .0001003
INCLINATION    = 53.1591
RA_OF_ASC_NODE = 201.8775
ARG_OF_PERICENTER = 86.6552
MEAN_ANOMALY   = 162.0396

EPHEMERIS_TYPE = 0
CLASSIFICATION_TYPE = U
NORAD_CAT_ID   = 66153
ELEMENT_SET_NO = 999
REV_AT_EPOCH   = 564
BSTAR          = .19445E-2
MEAN_MOTION_DOT = .78064E-3
MEAN_MOTION_DDOT = 0

CCSDS_OMM_VERS = 2.0
CREATION_DATE  = 
ORIGINATOR     = 

OBJECT_NAME    = STARLINK-34625
OBJECT_ID      = 2025-240J
CENTER_NAME    = EARTH
REF_FRAME      = TEME
TIME_SYSTEM    = UTC
MEAN_ELEMENT_THEORY = SGP/SGP4

EPOCH          = 2025-11-22T12:00:02.998944
MEAN_MOTION    = 15.39601868
ECCENTRICITY   = .0000567
INCLINATION    = 53.1586
RA_OF_ASC_NODE = 201.7239
ARG_OF_PERICENTER = 63.9590
MEAN_ANOMALY   = 261.8938

EPHEMERIS_TYPE = 0
CLASSIFICATION_TYPE = U
NORAD_CAT_ID   = 66154
ELEMENT_SET_NO = 999
REV_AT_EPOCH   = 569
BSTAR          = .21959E-2
MEAN_MOTION_DOT = .88404E-3
MEAN_MOTION_DDOT = 0

