TJS-20                  
1 66142U 25238A   25326.45625352  .00000043  00000+0  00000+0 0  9994
2 66142   5.9338 300.4058 0001524  98.2581 249.7665  1.00270366   255
CZ-5 R/B                
1 66143U 25238B   25326.29456580  .00116414  15328-5  23113-2 0  9990
2 66143  16.2544 263.3751 7584111 182.7486 167.2638  1.95289665   592
SPAINSAT NG II          
1 66144U 25239A   25324.73912434 -.00000263  00000+0  00000+0 0  9991
2 66144  19.1906 243.2668 7826260 184.4813 157.6443  1.02461053   327
STARLINK-35318          
1 66146U 25240A   25325.95513172  .00049885  00000+0  12500-2 0  9999
2 66146  53.1586 204.6594 0001128  63.9224 296.1896 15.39594257  5524
STARLINK-33948          
1 66147U 25240B   25326.50003471  .00081306  00000+0  20241-2 0  9993
2 66147  53.1590 201.7759 0001330 104.0544 196.1520 15.39573209  5693
STARLINK-35081          
1 66148U 25240C   25326.50003471 -.01833952  00000+0 -38449-1 0  9997
2 66148  53.1585 201.5326 0000834 115.9052 306.5928 15.47880901  5642
STARLINK-35601          
1 66149U 25240D   25325.94053330  .00050419  00000+0  12636-2 0  9991
2 66149  53.1593 204.5665 0001132  70.7800 289.3328 15.39583947  5476
STARLINK-35605          
1 66150U 25240E   25326.50003471  .00099074  00000+0  24649-2 0  9994
2 66150  53.1587 201.6727 0001051 131.7478 219.9988 15.39494131  5643
STARLINK-35540          
1 66151U 25240F   25326.17264105  .00067033  00000+0  12035-2 0  9997
2 66151  53.1588 203.1671 0001620  87.1524 272.9670 15.49296939  5518
STARLINK-35455          
1 66152U 25240G   25326.08031719  .00037505  00000+0  94326-3 0  9996
2 66152  53.1585 204.0163 0001096  74.3740 285.7385 15.39611311  5493
STARLINK-34752          
1 66153U 25240H   25326.50003471  .00078064  00000+0  19445-2 0  9991
2 66153  53.1591 201.8775 0001003  86.6552 162.0396 15.39575848  5640
STARLINK-34625          
1 66154U 25240J   25326.50003471  .00088404  00000+0  21959-2 0  9994
2 66154  53.1586 201.7239 0000567  63.9590 261.8938 15.39601868  5690
